{
 "generated_at": "2026-07-02T08:12:02Z",
 "sources": [
  {
   "name": "CelesTrak",
   "url": "https://celestrak.org/NORAD/elements/",
   "license": "frei verfügbar; Attribution. Ursprünglich USSPACECOM/Space-Track."
  },
  {
   "name": "GCAT (J. McDowell, planet4589.org)",
   "url": "https://planet4589.org/space/gcat/",
   "license": "CC-BY 4.0"
  }
 ],
 "satellites": [
  {
   "norad": 46497,
   "name": "ICEYE-X6",
   "intl": "2020-068M",
   "group": "sar",
   "gcat": {
    "class": "B",
    "category": "IMG-R",
    "owner": "ICEYE",
    "state": "FI"
   },
   "omm": {
    "OBJECT_NAME": "ICEYE-X6",
    "OBJECT_ID": "2020-068M",
    "EPOCH": "2026-07-01T22:56:04.710048",
    "MEAN_MOTION": 15.0460004,
    "ECCENTRICITY": 0.00083529,
    "INCLINATION": 98.0967,
    "RA_OF_ASC_NODE": 177.3341,
    "ARG_OF_PERICENTER": 50.0319,
    "MEAN_ANOMALY": 310.1638,
    "EPHEMERIS_TYPE": 0,
    "CLASSIFICATION_TYPE": "U",
    "NORAD_CAT_ID": 46497,
    "ELEMENT_SET_NO": 999,
    "REV_AT_EPOCH": 31545,
    "BSTAR": 0.00021201561,
    "MEAN_MOTION_DOT": 0.0000291,
    "MEAN_MOTION_DDOT": 0
   }
  },
  {
   "norad": 66753,
   "name": "ICEYE-X60",
   "intl": "2025-276CR",
   "group": "sar",
   "gcat": {
    "class": "B",
    "category": "IMG-R",
    "owner": "ELKED",
    "state": "GR"
   },
   "omm": {
    "OBJECT_NAME": "ICEYE-X60",
    "OBJECT_ID": "2025-276CR",
    "EPOCH": "2026-07-01T19:46:10.811136",
    "MEAN_MOTION": 15.11307967,
    "ECCENTRICITY": 0.00017735,
    "INCLINATION": 97.4194,
    "RA_OF_ASC_NODE": 255.0641,
    "ARG_OF_PERICENTER": 16.3705,
    "MEAN_ANOMALY": 343.7582,
    "EPHEMERIS_TYPE": 0,
    "CLASSIFICATION_TYPE": "U",
    "NORAD_CAT_ID": 66753,
    "ELEMENT_SET_NO": 999,
    "REV_AT_EPOCH": 3257,
    "BSTAR": 0.00038726458,
    "MEAN_MOTION_DOT": 0.00006462,
    "MEAN_MOTION_DDOT": 0
   }
  },
  {
   "norad": 66754,
   "name": "ICEYE-X61",
   "intl": "2025-276CS",
   "group": "sar",
   "gcat": {
    "class": "B",
    "category": "IMG-R",
    "owner": "ICEYE",
    "state": "FI"
   },
   "omm": {
    "OBJECT_NAME": "ICEYE-X61",
    "OBJECT_ID": "2025-276CS",
    "EPOCH": "2026-07-01T22:06:44.986464",
    "MEAN_MOTION": 15.18539224,
    "ECCENTRICITY": 0.0001625,
    "INCLINATION": 97.4199,
    "RA_OF_ASC_NODE": 256.1367,
    "ARG_OF_PERICENTER": 298.7724,
    "MEAN_ANOMALY": 61.3347,
    "EPHEMERIS_TYPE": 0,
    "CLASSIFICATION_TYPE": "U",
    "NORAD_CAT_ID": 66754,
    "ELEMENT_SET_NO": 999,
    "REV_AT_EPOCH": 3265,
    "BSTAR": 0.00018683426,
    "MEAN_MOTION_DOT": 0.00003791,
    "MEAN_MOTION_DDOT": 0
   }
  },
  {
   "norad": 66755,
   "name": "ICEYE-X62",
   "intl": "2025-276CT",
   "group": "sar",
   "gcat": {
    "class": "B",
    "category": "IMG-R",
    "owner": "MON/WKL",
    "state": "PL"
   },
   "omm": {
    "OBJECT_NAME": "ICEYE-X62",
    "OBJECT_ID": "2025-276CT",
    "EPOCH": "2026-07-01T10:37:38.041824",
    "MEAN_MOTION": 15.10085524,
    "ECCENTRICITY": 0.00014776,
    "INCLINATION": 97.4197,
    "RA_OF_ASC_NODE": 254.2047,
    "ARG_OF_PERICENTER": 0.9304,
    "MEAN_ANOMALY": 359.1928,
    "EPHEMERIS_TYPE": 0,
    "CLASSIFICATION_TYPE": "U",
    "NORAD_CAT_ID": 66755,
    "ELEMENT_SET_NO": 999,
    "REV_AT_EPOCH": 3248,
    "BSTAR": 0.00014054971,
    "MEAN_MOTION_DOT": 0.00002227,
    "MEAN_MOTION_DDOT": 0
   }
  },
  {
   "norad": 67372,
   "name": "ICEYE-X63",
   "intl": "2026-004K",
   "group": "sar",
   "gcat": {
    "class": "B",
    "category": "IMG-R",
    "owner": "ICEYE",
    "state": "FI"
   },
   "omm": {
    "OBJECT_NAME": "ICEYE-X63",
    "OBJECT_ID": "2026-004K",
    "EPOCH": "2026-07-01T22:33:31.290336",
    "MEAN_MOTION": 14.88328328,
    "ECCENTRICITY": 0.00058481,
    "INCLINATION": 97.8003,
    "RA_OF_ASC_NODE": 181.3485,
    "ARG_OF_PERICENTER": 83.5706,
    "MEAN_ANOMALY": 276.6177,
    "EPHEMERIS_TYPE": 0,
    "CLASSIFICATION_TYPE": "U",
    "NORAD_CAT_ID": 67372,
    "ELEMENT_SET_NO": 999,
    "REV_AT_EPOCH": 2549,
    "BSTAR": 0.00012518279,
    "MEAN_MOTION_DOT": 0.00001104,
    "MEAN_MOTION_DDOT": 0
   }
  },
  {
   "norad": 67373,
   "name": "ICEYE-X64",
   "intl": "2026-004L",
   "group": "sar",
   "gcat": {
    "class": "D",
    "category": "IMG-R",
    "owner": "PUOL",
    "state": "FI"
   },
   "omm": {
    "OBJECT_NAME": "ICEYE-X64",
    "OBJECT_ID": "2026-004L",
    "EPOCH": "2026-07-01T22:02:09.375648",
    "MEAN_MOTION": 14.87959012,
    "ECCENTRICITY": 0.00076262,
    "INCLINATION": 97.8018,
    "RA_OF_ASC_NODE": 181.2517,
    "ARG_OF_PERICENTER": 88.4989,
    "MEAN_ANOMALY": 271.7102,
    "EPHEMERIS_TYPE": 0,
    "CLASSIFICATION_TYPE": "U",
    "NORAD_CAT_ID": 67373,
    "ELEMENT_SET_NO": 999,
    "REV_AT_EPOCH": 2548,
    "BSTAR": 0.00016103351,
    "MEAN_MOTION_DOT": 0.00001423,
    "MEAN_MOTION_DDOT": 0
   }
  },
  {
   "norad": 66300,
   "name": "ICEYE-X65",
   "intl": "2025-248H",
   "group": "sar",
   "gcat": {
    "class": "B",
    "category": "IMG-R",
    "owner": "SP42",
    "state": "UAE"
   },
   "omm": {
    "OBJECT_NAME": "ICEYE-X65",
    "OBJECT_ID": "2025-248H",
    "EPOCH": "2026-07-01T22:09:18.887328",
    "MEAN_MOTION": 15.0785647,
    "ECCENTRICITY": 0.00043108,
    "INCLINATION": 45.4047,
    "RA_OF_ASC_NODE": 56.6921,
    "ARG_OF_PERICENTER": 119.568,
    "MEAN_ANOMALY": 240.5632,
    "EPHEMERIS_TYPE": 0,
    "CLASSIFICATION_TYPE": "U",
    "NORAD_CAT_ID": 66300,
    "ELEMENT_SET_NO": 999,
    "REV_AT_EPOCH": 3774,
    "BSTAR": 0.00036470518,
    "MEAN_MOTION_DOT": 0.00005433,
    "MEAN_MOTION_DDOT": 0
   }
  },
  {
   "norad": 66301,
   "name": "ICEYE-X66",
   "intl": "2025-248J",
   "group": "sar",
   "gcat": {
    "class": "B",
    "category": "IMG-R",
    "owner": "SP42",
    "state": "UAE"
   },
   "omm": {
    "OBJECT_NAME": "ICEYE-X66",
    "OBJECT_ID": "2025-248J",
    "EPOCH": "2026-07-01T22:21:48.723552",
    "MEAN_MOTION": 15.09101408,
    "ECCENTRICITY": 0.00039957,
    "INCLINATION": 45.4016,
    "RA_OF_ASC_NODE": 55.8661,
    "ARG_OF_PERICENTER": 113.98,
    "MEAN_ANOMALY": 246.15,
    "EPHEMERIS_TYPE": 0,
    "CLASSIFICATION_TYPE": "U",
    "NORAD_CAT_ID": 66301,
    "ELEMENT_SET_NO": 999,
    "REV_AT_EPOCH": 3773,
    "BSTAR": 0.00035175365,
    "MEAN_MOTION_DOT": 0.00005418,
    "MEAN_MOTION_DDOT": 0
   }
  },
  {
   "norad": 66302,
   "name": "ICEYE-X67",
   "intl": "2025-248K",
   "group": "sar",
   "gcat": {
    "class": "B",
    "category": "IMG-R",
    "owner": "SP42",
    "state": "UAE"
   },
   "omm": {
    "OBJECT_NAME": "ICEYE-X67",
    "OBJECT_ID": "2025-248K",
    "EPOCH": "2026-07-01T22:57:08.044704",
    "MEAN_MOTION": 15.09082307,
    "ECCENTRICITY": 0.00054805,
    "INCLINATION": 45.4045,
    "RA_OF_ASC_NODE": 55.3085,
    "ARG_OF_PERICENTER": 116.2884,
    "MEAN_ANOMALY": 243.8562,
    "EPHEMERIS_TYPE": 0,
    "CLASSIFICATION_TYPE": "U",
    "NORAD_CAT_ID": 66302,
    "ELEMENT_SET_NO": 999,
    "REV_AT_EPOCH": 3775,
    "BSTAR": 0.00034258453,
    "MEAN_MOTION_DOT": 0.00005267,
    "MEAN_MOTION_DDOT": 0
   }
  },
  {
   "norad": 46496,
   "name": "ICEYE-X7",
   "intl": "2020-068L",
   "group": "sar",
   "gcat": {
    "class": "B",
    "category": "IMG-R",
    "owner": "ICEYE",
    "state": "FI"
   },
   "omm": {
    "OBJECT_NAME": "ICEYE-X7",
    "OBJECT_ID": "2020-068L",
    "EPOCH": "2026-07-01T23:18:59.989824",
    "MEAN_MOTION": 15.3184236,
    "ECCENTRICITY": 0.00052003,
    "INCLINATION": 97.7502,
    "RA_OF_ASC_NODE": 150.1731,
    "ARG_OF_PERICENTER": 275.606,
    "MEAN_ANOMALY": 84.4587,
    "EPHEMERIS_TYPE": 0,
    "CLASSIFICATION_TYPE": "U",
    "NORAD_CAT_ID": 46496,
    "ELEMENT_SET_NO": 999,
    "REV_AT_EPOCH": 31705,
    "BSTAR": 0.00043872562,
    "MEAN_MOTION_DOT": 0.00013419,
    "MEAN_MOTION_DDOT": 0
   }
  }
 ]
}
