ICEYE-X7                
1 46496U 20068L   26182.97152766  .00013419  00000+0  43873-3 0  9992
2 46496  97.7502 150.1731 0005200 275.6060  84.4587 15.31842360317057
ICEYE-X6                
1 46497U 20068M   26182.95561007  .00002910  00000+0  21202-3 0  9999
2 46497  98.0967 177.3341 0008352  50.0319 310.1638 15.04600040315453
ICEYE-X65               
1 66300U 25248H   26182.92313527  .00005433  00000+0  36471-3 0  9995
2 66300  45.4047  56.6921 0004310 119.5680 240.5632 15.07856470 37744
ICEYE-X66               
1 66301U 25248J   26182.93181393  .00005418  00000+0  35175-3 0  9994
2 66301  45.4016  55.8661 0003995 113.9800 246.1500 15.09101408 37734
ICEYE-X67               
1 66302U 25248K   26182.95634311  .00005267  00000+0  34258-3 0  9993
2 66302  45.4045  55.3085 0005480 116.2884 243.8562 15.09082307 37751
ICEYE-X60               
1 66753U 25276CR  26182.82373624  .00006462  00000+0  38726-3 0  9999
2 66753  97.4194 255.0641 0001773  16.3705 343.7582 15.11307967 32575
ICEYE-X61               
1 66754U 25276CS  26182.92135401  .00003791  00000+0  18683-3 0  9992
2 66754  97.4199 256.1367 0001625 298.7724  61.3347 15.18539224 32652
ICEYE-X62               
1 66755U 25276CT  26182.44280141  .00002227  00000+0  14055-3 0  9994
2 66755  97.4197 254.2047 0001477   0.9304 359.1928 15.10085524 32482
ICEYE-X63               
1 67372U 26004K   26182.93994549  .00001104  00000+0  12518-3 0  9993
2 67372  97.8003 181.3485 0005848  83.5706 276.6177 14.88328328 25491
ICEYE-X64               
1 67373U 26004L   26182.91816407  .00001423  00000+0  16103-3 0  9996
2 67373  97.8018 181.2517 0007626  88.4989 271.7102 14.87959012 25488
